CCSDS_OMM_VERS = 2.0
CREATION_DATE  = 
ORIGINATOR     = 

OBJECT_NAME    = ISS OBJECT XW
OBJECT_ID      = 1998-067XW
CENTER_NAME    = EARTH
REF_FRAME      = TEME
TIME_SYSTEM    = UTC
MEAN_ELEMENT_THEORY = SGP/SGP4

EPOCH          = 2026-02-25T11:00:45.209376
MEAN_MOTION    = 15.65190954
ECCENTRICITY   = .00042052
INCLINATION    = 51.6260
RA_OF_ASC_NODE = 127.7246
ARG_OF_PERICENTER = 24.4153
MEAN_ANOMALY   = 335.7041

EPHEMERIS_TYPE = 0
CLASSIFICATION_TYPE = U
NORAD_CAT_ID   = 66910
ELEMENT_SET_NO = 999
REV_AT_EPOCH   = 1326
BSTAR          = .96791619E-3
MEAN_MOTION_DOT = .98376E-3
MEAN_MOTION_DDOT = 0

CCSDS_OMM_VERS = 2.0
CREATION_DATE  = 
ORIGINATOR     = 

OBJECT_NAME    = ISS OBJECT XX
OBJECT_ID      = 1998-067XX
CENTER_NAME    = EARTH
REF_FRAME      = TEME
TIME_SYSTEM    = UTC
MEAN_ELEMENT_THEORY = SGP/SGP4

EPOCH          = 2026-02-25T10:33:14.533920
MEAN_MOTION    = 15.69668223
ECCENTRICITY   = .00063723
INCLINATION    = 51.6225
RA_OF_ASC_NODE = 126.8388
ARG_OF_PERICENTER = 16.9850
MEAN_ANOMALY   = 343.1359

EPHEMERIS_TYPE = 0
CLASSIFICATION_TYPE = U
NORAD_CAT_ID   = 66911
ELEMENT_SET_NO = 999
REV_AT_EPOCH   = 1326
BSTAR          = .13393343E-2
MEAN_MOTION_DOT = .16505E-2
MEAN_MOTION_DDOT = 0

CCSDS_OMM_VERS = 2.0
CREATION_DATE  = 
ORIGINATOR     = 

OBJECT_NAME    = ISS OBJECT XY
OBJECT_ID      = 1998-067XY
CENTER_NAME    = EARTH
REF_FRAME      = TEME
TIME_SYSTEM    = UTC
MEAN_ELEMENT_THEORY = SGP/SGP4

EPOCH          = 2026-02-25T11:50:19.010112
MEAN_MOTION    = 15.61355614
ECCENTRICITY   = .00022285
INCLINATION    = 51.6272
RA_OF_ASC_NODE = 128.7158
ARG_OF_PERICENTER = 29.6142
MEAN_ANOMALY   = 330.4977

EPHEMERIS_TYPE = 0
CLASSIFICATION_TYPE = U
NORAD_CAT_ID   = 66912
ELEMENT_SET_NO = 999
REV_AT_EPOCH   = 1324
BSTAR          = .83270069E-3
MEAN_MOTION_DOT = .72438E-3
MEAN_MOTION_DDOT = 0

CCSDS_OMM_VERS = 2.0
CREATION_DATE  = 
ORIGINATOR     = 

OBJECT_NAME    = ISS OBJECT XZ
OBJECT_ID      = 1998-067XZ
CENTER_NAME    = EARTH
REF_FRAME      = TEME
TIME_SYSTEM    = UTC
MEAN_ELEMENT_THEORY = SGP/SGP4

EPOCH          = 2026-02-25T16:20:48.750720
MEAN_MOTION    = 15.50778677
ECCENTRICITY   = .0009828
INCLINATION    = 51.6309
RA_OF_ASC_NODE = 131.4691
ARG_OF_PERICENTER = 145.9555
MEAN_ANOMALY   = 214.2066

EPHEMERIS_TYPE = 0
CLASSIFICATION_TYPE = U
NORAD_CAT_ID   = 67683
ELEMENT_SET_NO = 999
REV_AT_EPOCH   = 292
BSTAR          = .5825E-3
MEAN_MOTION_DOT = .33918E-3
MEAN_MOTION_DDOT = 0

CCSDS_OMM_VERS = 2.0
CREATION_DATE  = 
ORIGINATOR     = 

OBJECT_NAME    = GXIBA-1
OBJECT_ID      = 1998-067YA
CENTER_NAME    = EARTH
REF_FRAME      = TEME
TIME_SYSTEM    = UTC
MEAN_ELEMENT_THEORY = SGP/SGP4

EPOCH          = 2026-02-25T09:52:50.696832
MEAN_MOTION    = 15.52283656
ECCENTRICITY   = .0011314
INCLINATION    = 51.6310
RA_OF_ASC_NODE = 132.6717
ARG_OF_PERICENTER = 136.6154
MEAN_ANOMALY   = 223.5729

EPHEMERIS_TYPE = 0
CLASSIFICATION_TYPE = U
NORAD_CAT_ID   = 67684
ELEMENT_SET_NO = 999
REV_AT_EPOCH   = 288
BSTAR          = .10031312E-2
MEAN_MOTION_DOT = .6228E-3
MEAN_MOTION_DDOT = 0

CCSDS_OMM_VERS = 2.0
CREATION_DATE  = 
ORIGINATOR     = 

OBJECT_NAME    = CORAL
OBJECT_ID      = 1998-067YB
CENTER_NAME    = EARTH
REF_FRAME      = TEME
TIME_SYSTEM    = UTC
MEAN_ELEMENT_THEORY = SGP/SGP4

EPOCH          = 2026-02-25T10:06:38.751840
MEAN_MOTION    = 15.51003889
ECCENTRICITY   = .0011765
INCLINATION    = 51.6309
RA_OF_ASC_NODE = 132.7349
ARG_OF_PERICENTER = 141.4592
MEAN_ANOMALY   = 218.7239

EPHEMERIS_TYPE = 0
CLASSIFICATION_TYPE = U
NORAD_CAT_ID   = 67685
ELEMENT_SET_NO = 999
REV_AT_EPOCH   = 288
BSTAR          = .65017707E-3
MEAN_MOTION_DOT = .38274E-3
MEAN_MOTION_DDOT = 0

CCSDS_OMM_VERS = 2.0
CREATION_DATE  = 
ORIGINATOR     = 

OBJECT_NAME    = ISS OBJECT YC
OBJECT_ID      = 1998-067YC
CENTER_NAME    = EARTH
REF_FRAME      = TEME
TIME_SYSTEM    = UTC
MEAN_ELEMENT_THEORY = SGP/SGP4

EPOCH          = 2026-02-24T12:24:41.758272
MEAN_MOTION    = 15.51233940
ECCENTRICITY   = .00077298
INCLINATION    = 51.6312
RA_OF_ASC_NODE = 137.1991
ARG_OF_PERICENTER = 108.4650
MEAN_ANOMALY   = 251.7180

EPHEMERIS_TYPE = 0
CLASSIFICATION_TYPE = U
NORAD_CAT_ID   = 67686
ELEMENT_SET_NO = 999
REV_AT_EPOCH   = 274
BSTAR          = .76511481E-3
MEAN_MOTION_DOT = .45468E-3
MEAN_MOTION_DDOT = 0

CCSDS_OMM_VERS = 2.0
CREATION_DATE  = 
ORIGINATOR     = 

OBJECT_NAME    = LEOPARD
OBJECT_ID      = 1998-067YD
CENTER_NAME    = EARTH
REF_FRAME      = TEME
TIME_SYSTEM    = UTC
MEAN_ELEMENT_THEORY = SGP/SGP4

EPOCH          = 2026-02-25T14:46:16.570848
MEAN_MOTION    = 15.50897316
ECCENTRICITY   = .000771
INCLINATION    = 51.6311
RA_OF_ASC_NODE = 131.7822
ARG_OF_PERICENTER = 115.1078
MEAN_ANOMALY   = 245.0712

EPHEMERIS_TYPE = 0
CLASSIFICATION_TYPE = U
NORAD_CAT_ID   = 67687
ELEMENT_SET_NO = 999
REV_AT_EPOCH   = 283
BSTAR          = .56938E-3
MEAN_MOTION_DOT = .33259E-3
MEAN_MOTION_DDOT = 0

CCSDS_OMM_VERS = 2.0
CREATION_DATE  = 
ORIGINATOR     = 

OBJECT_NAME    = ISS OBJECT YE
OBJECT_ID      = 1998-067YE
CENTER_NAME    = EARTH
REF_FRAME      = TEME
TIME_SYSTEM    = UTC
MEAN_ELEMENT_THEORY = SGP/SGP4

EPOCH          = 2026-02-25T10:04:47.547264
MEAN_MOTION    = 15.51173026
ECCENTRICITY   = .0007609
INCLINATION    = 51.6315
RA_OF_ASC_NODE = 132.7279
ARG_OF_PERICENTER = 111.7253
MEAN_ANOMALY   = 248.4547

EPHEMERIS_TYPE = 0
CLASSIFICATION_TYPE = U
NORAD_CAT_ID   = 67688
ELEMENT_SET_NO = 999
REV_AT_EPOCH   = 280
BSTAR          = .71854567E-3
MEAN_MOTION_DOT = .42562E-3
MEAN_MOTION_DDOT = 0

CCSDS_OMM_VERS = 2.0
CREATION_DATE  = 
ORIGINATOR     = 

OBJECT_NAME    = CREW DRAGON 12
OBJECT_ID      = 2026-031A
CENTER_NAME    = EARTH
REF_FRAME      = TEME
TIME_SYSTEM    = UTC
MEAN_ELEMENT_THEORY = SGP/SGP4

EPOCH          = 2026-02-25T13:45:55.251360
MEAN_MOTION    = 15.48286925
ECCENTRICITY   = .00083472
INCLINATION    = 51.6319
RA_OF_ASC_NODE = 132.2502
ARG_OF_PERICENTER = 132.4308
MEAN_ANOMALY   = 227.7387

EPHEMERIS_TYPE = 0
CLASSIFICATION_TYPE = U
NORAD_CAT_ID   = 67796
ELEMENT_SET_NO = 999
REV_AT_EPOCH   = 55442
BSTAR          = .18599678E-3
MEAN_MOTION_DOT = .9568E-4
MEAN_MOTION_DDOT = 0

